OBJECT_NAME,OBJECT_ID,EPOCH,MEAN_MOTION,ECCENTRICITY,INCLINATION,RA_OF_ASC_NODE,ARG_OF_PERICENTER,MEAN_ANOMALY,EPHEMERIS_TYPE,CLASSIFICATION_TYPE,NORAD_CAT_ID,ELEMENT_SET_NO,REV_AT_EPOCH,BSTAR,MEAN_MOTION_DOT,MEAN_MOTION_DDOT
GEOSCAN 3 (RS92S3),2025-155T,2026-06-04T17:50:28.381920,15.34961771,.0004797,97.4538,125.4799,203.6130,156.4893,0,U,64893,999,7894,.59371E-3,.20088E-3,0
INNOSAT 3 (RS92S0),2025-155U,2026-06-04T17:38:02.564160,15.42917525,.0004119,97.4489,126.9416,184.9630,175.1577,0,U,64894,999,7904,.87699E-3,.38606E-3,0
KNACKSAT-2,1998-067XZ,2026-06-02T19:15:48.445056,15.58609395,.0010958,51.6300,6.7601,153.2067,206.9494,0,U,67683,999,1803,.58253104E-3,.45408E-3,0
