KNACKSAT-2              
1 67683U 98067XZ  26153.80264404  .00045408  00000+0  58253-3 0  9991
2 67683  51.6300   6.7601 0010958 153.2067 206.9494 15.58609395 18031
GEOSCAN 3 (RS92S3)      
1 64893U 25155T   26155.74338405  .00020088  00000+0  59371-3 0  9996
2 64893  97.4538 125.4799 0004797 203.6130 156.4893 15.34961771 78945
INNOSAT 3 (RS92S0)      
1 64894U 25155U   26155.73475190  .00038606  00000+0  87699-3 0  9998
2 64894  97.4489 126.9416 0004119 184.9630 175.1577 15.42917525 79043
